start=new Date('2022-12-04T00:00:00.000Z').valueOf();
sats=[{"COUNTRY_CODE":"US","RCS_SIZE":"LARGE","CLASSIFICATION_TYPE":"U","REV_AT_EPOCH":"5897","APOAPSIS":"541.615","ECCENTRICITY":"0.00027020","DECAY_DATE":null,"TLE_LINE2":"2 49444  53.2158 159.9211 0002702  49.5309 310.5918 15.08839910 58970","BSTAR":"0.00009908400000","FILE":"3680595","LAUNCH_DATE":"2021-11-13","GP_ID":"219481267","TLE_LINE1":"1 49444U 21104AN  22337.75679065  .00001289  00000-0  99084-4 0  9999","SITE":"AFETR","NORAD_CAT_ID":"49444","MEAN_MOTION":"15.08839910","OBJECT_NAME":"STARLINK-3126","MEAN_MOTION_DOT":"0.00001289","PERIAPSIS":"537.876","PERIOD":"95.438","REF_FRAME":"TEME","MEAN_ELEMENT_THEORY":"SGP4","EPOCH":"2022-12-03T18:09:46.712160","OBJECT_TYPE":"PAYLOAD","MEAN_MOTION_DDOT":"0.0000000000000","CENTER_NAME":"EARTH","SEMIMAJOR_AXIS":"6917.881","RA_OF_ASC_NODE":"159.9211","TIME_SYSTEM":"UTC","OBJECT_ID":"2021-104AN","INCLINATION":"53.2158","EPHEMERIS_TYPE":"0","ARG_OF_PERICENTER":"49.5309","MEAN_ANOMALY":"310.5918","ELEMENT_SET_NO":"999"},{"ECCENTRICITY":"0.00029020","DECAY_DATE":null,"TLE_LINE2":"2 49445  53.2159 169.5644 0002902  41.7765 318.3448 15.08834499 58848","LAUNCH_DATE":"2021-11-13","FILE":"3680595","BSTAR":"-0.00000742710000","APOAPSIS":"541.770","REV_AT_EPOCH":"5884","COUNTRY_CODE":"US","CLASSIFICATION_TYPE":"U","RCS_SIZE":"LARGE","SITE":"AFETR","NORAD_CAT_ID":"49445","TLE_LINE1":"1 49445U 21104AP  22337.83683170 -.00000407  00000-0 -74271-5 0  9996","GP_ID":"219481513","OBJECT_NAME":"STARLINK-3122","MEAN_MOTION":"15.08834499","PERIOD":"95.438","REF_FRAME":"TEME","PERIAPSIS":"537.755","MEAN_MOTION_DOT":"-0.00000407","OBJECT_TYPE":"PAYLOAD","EPOCH":"2022-12-03T20:05:02.258880","MEAN_MOTION_DDOT":"0.0000000000000","MEAN_ELEMENT_THEORY":"SGP4","TIME_SYSTEM":"UTC","OBJECT_ID":"2021-104AP","INCLINATION":"53.2159","RA_OF_ASC_NODE":"169.5644","CENTER_NAME":"EARTH","SEMIMAJOR_AXIS":"6917.897","EPHEMERIS_TYPE":"0","ARG_OF_PERICENTER":"41.7765","ELEMENT_SET_NO":"999","MEAN_ANOMALY":"318.3448"},{"RA_OF_ASC_NODE":"159.9370","OBJECT_ID":"2021-104AQ","TIME_SYSTEM":"UTC","INCLINATION":"53.2156","CENTER_NAME":"EARTH","SEMIMAJOR_AXIS":"6917.886","OBJECT_TYPE":"PAYLOAD","EPOCH":"2022-12-03T18:04:29.005536","MEAN_MOTION_DDOT":"0.0000000000000","MEAN_ELEMENT_THEORY":"SGP4","ELEMENT_SET_NO":"999","MEAN_ANOMALY":"307.8040","EPHEMERIS_TYPE":"0","ARG_OF_PERICENTER":"52.3151","TLE_LINE1":"1 49446U 21104AQ  22337.75311349 -.00000456  00000-0 -10531-4 0  9996","SITE":"AFETR","NORAD_CAT_ID":"49446","GP_ID":"219479766","APOAPSIS":"541.271","REV_AT_EPOCH":"5897","DECAY_DATE":null,"ECCENTRICITY":"0.00021960","LAUNCH_DATE":"2021-11-13","TLE_LINE2":"2 49446  53.2156 159.9370 0002196  52.3151 307.8040 15.08838032 58979","FILE":"3680595","BSTAR":"-0.00001053100000","COUNTRY_CODE":"US","CLASSIFICATION_TYPE":"U","RCS_SIZE":"LARGE","PERIOD":"95.438","REF_FRAME":"TEME","MEAN_MOTION_DOT":"-0.00000456","PERIAPSIS":"538.232","OBJECT_NAME":"STARLINK-3099","MEAN_MOTION":"15.08838032"},{"MEAN_ANOMALY":"315.0704","ELEMENT_SET_NO":"999","ARG_OF_PERICENTER":"45.0521","EPHEMERIS_TYPE":"0","SEMIMAJOR_AXIS":"6917.903","CENTER_NAME":"EARTH","OBJECT_ID":"2021-104AR","TIME_SYSTEM":"UTC","INCLINATION":"53.2145","RA_OF_ASC_NODE":"169.5886","MEAN_ELEMENT_THEORY":"SGP4","EPOCH":"2022-12-03T19:54:26.620992","OBJECT_TYPE":"PAYLOAD","MEAN_MOTION_DDOT":"0.0000000000000","PERIAPSIS":"537.772","MEAN_MOTION_DOT":"-0.00000189","PERIOD":"95.438","REF_FRAME":"TEME","MEAN_MOTION":"15.08832461","OBJECT_NAME":"STARLINK-3115","GP_ID":"219480512","SITE":"AFETR","NORAD_CAT_ID":"49447","TLE_LINE1":"1 49447U 21104AR  22337.82947478 -.00000189  00000-0  62506-5 0  9995","COUNTRY_CODE":"US","CLASSIFICATION_TYPE":"U","RCS_SIZE":"LARGE","ECCENTRICITY":"0.00028860","DECAY_DATE":null,"TLE_LINE2":"2 49447  53.2145 169.5886 0002886  45.0521 315.0704 15.08832461 58847","BSTAR":"0.00000625060000","FILE":"3680595","LAUNCH_DATE":"2021-11-13","REV_AT_EPOCH":"5884","APOAPSIS":"541.765"},{"ARG_OF_PERICENTER":"42.8514","EPHEMERIS_TYPE":"0","ELEMENT_SET_NO":"999","MEAN_ANOMALY":"317.2748","OBJECT_TYPE":"PAYLOAD","EPOCH":"2022-12-03T20:10:19.670016","MEAN_MOTION_DDOT":"0.0000000000000","MEAN_ELEMENT_THEORY":"SGP4","OBJECT_ID":"2021-104AS","TIME_SYSTEM":"UTC","INCLINATION":"53.2158","RA_OF_ASC_NODE":"169.5427","CENTER_NAME":"EARTH","SEMIMAJOR_AXIS":"6917.872","OBJECT_NAME":"STARLINK-3097","MEAN_MOTION":"15.08842719","PERIOD":"95.437","REF_FRAME":"TEME","PERIAPSIS":"537.345","MEAN_MOTION_DOT":"-0.00000371","DECAY_DATE":null,"ECCENTRICITY":"0.00034580","FILE":"3680595","TLE_LINE2":"2 49448  53.2158 169.5427 0003458  42.8514 317.2748 15.08842719 58845","BSTAR":"-0.00000514440000","LAUNCH_DATE":"2021-11-13","APOAPSIS":"542.129","REV_AT_EPOCH":"5884","COUNTRY_CODE":"US","CLASSIFICATION_TYPE":"U","RCS_SIZE":"LARGE","SITE":"AFETR","NORAD_CAT_ID":"49448","TLE_LINE1":"1 49448U 21104AS  22337.84050544 -.00000371  00000-0 -51444-5 0  9990","GP_ID":"219480768"},{"DECAY_DATE":null,"ECCENTRICITY":"0.00029270","TLE_LINE2":"2 49449  53.2157 169.6113 0002927  44.3691 315.7535 15.08832323 58848","FILE":"3680595","BSTAR":"0.00002913100000","LAUNCH_DATE":"2021-11-13","REV_AT_EPOCH":"5884","APOAPSIS":"541.794","COUNTRY_CODE":"US","RCS_SIZE":"LARGE","CLASSIFICATION_TYPE":"U","SITE":"AFETR","NORAD_CAT_ID":"49449","TLE_LINE1":"1 49449U 21104AT  22337.82579490  .00000175  00000-0  29131-4 0  9992","GP_ID":"219481014","OBJECT_NAME":"STARLINK-3137","MEAN_MOTION":"15.08832323","PERIOD":"95.438","REF_FRAME":"TEME","PERIAPSIS":"537.744","MEAN_MOTION_DOT":"0.00000175","OBJECT_TYPE":"PAYLOAD","EPOCH":"2022-12-03T19:49:08.679360","MEAN_MOTION_DDOT":"0.0000000000000","MEAN_ELEMENT_THEORY":"SGP4","OBJECT_ID":"2021-104AT","TIME_SYSTEM":"UTC","INCLINATION":"53.2157","RA_OF_ASC_NODE":"169.6113","SEMIMAJOR_AXIS":"6917.904","CENTER_NAME":"EARTH","EPHEMERIS_TYPE":"0","ARG_OF_PERICENTER":"44.3691","ELEMENT_SET_NO":"999","MEAN_ANOMALY":"315.7535"},{"CENTER_NAME":"EARTH","SEMIMAJOR_AXIS":"6917.903","INCLINATION":"53.2153","TIME_SYSTEM":"UTC","OBJECT_ID":"2021-104AU","RA_OF_ASC_NODE":"169.5639","MEAN_ELEMENT_THEORY":"SGP4","MEAN_MOTION_DDOT":"0.0000000000000","EPOCH":"2022-12-03T19:59:44.154816","OBJECT_TYPE":"PAYLOAD","MEAN_ANOMALY":"316.4766","ELEMENT_SET_NO":"999","ARG_OF_PERICENTER":"43.6464","EPHEMERIS_TYPE":"0","GP_ID":"219480266","NORAD_CAT_ID":"49450","SITE":"AFETR","TLE_LINE1":"1 49450U 21104AU  22337.83314994 -.00000742  00000-0 -28478-4 0  9996","RCS_SIZE":"LARGE","CLASSIFICATION_TYPE":"U","COUNTRY_CODE":"US","TLE_LINE2":"2 49450  53.2153 169.5639 0003008  43.6464 316.4766 15.08832627 59100","FILE":"3680595","BSTAR":"-0.00002847800000","LAUNCH_DATE":"2021-11-13","ECCENTRICITY":"0.00030080","DECAY_DATE":null,"APOAPSIS":"541.849","REV_AT_EPOCH":"5910","PERIAPSIS":"537.687","MEAN_MOTION_DOT":"-0.00000742","REF_FRAME":"TEME","PERIOD":"95.438","MEAN_MOTION":"15.08832627","OBJECT_NAME":"STARLINK-3127"},{"MEAN_MOTION_DOT":"-0.00000234","PERIAPSIS":"537.372","REF_FRAME":"TEME","PERIOD":"95.437","MEAN_MOTION":"15.08848685","OBJECT_NAME":"STARLINK-3125","GP_ID":"219480013","TLE_LINE1":"1 49451U 21104AV  22337.82210541 -.00000234  00000-0  34317-5 0  9994","NORAD_CAT_ID":"49451","SITE":"AFETR","CLASSIFICATION_TYPE":"U","RCS_SIZE":"LARGE","COUNTRY_CODE":"US","APOAPSIS":"542.066","REV_AT_EPOCH":"5884","TLE_LINE2":"2 49451  53.2164 169.6338 0003393  46.0077 314.1195 15.08848685 58846","FILE":"3680595","LAUNCH_DATE":"2021-11-13","BSTAR":"0.00000343170000","ECCENTRICITY":"0.00033930","DECAY_DATE":null,"MEAN_ANOMALY":"314.1195","ELEMENT_SET_NO":"999","EPHEMERIS_TYPE":"0","ARG_OF_PERICENTER":"46.0077","SEMIMAJOR_AXIS":"6917.854","CENTER_NAME":"EARTH","RA_OF_ASC_NODE":"169.6338","INCLINATION":"53.2164","OBJECT_ID":"2021-104AV","TIME_SYSTEM":"UTC","MEAN_ELEMENT_THEORY":"SGP4","MEAN_MOTION_DDOT":"0.0000000000000","OBJECT_TYPE":"PAYLOAD","EPOCH":"2022-12-03T19:43:49.907424"},{"SITE":"AFETR","NORAD_CAT_ID":"49452","TLE_LINE1":"1 49452U 21104AW  22337.80835183  .00001835  00000-0  13335-3 0  9990","GP_ID":"219481268","ECCENTRICITY":"0.00024470","DECAY_DATE":null,"FILE":"3680595","TLE_LINE2":"2 49452  53.2156 169.6916 0002447  39.1384 320.9785 15.08852156 58841","BSTAR":"0.00013335000000","LAUNCH_DATE":"2021-11-13","REV_AT_EPOCH":"5884","APOAPSIS":"541.401","COUNTRY_CODE":"US","RCS_SIZE":"LARGE","CLASSIFICATION_TYPE":"U","PERIOD":"95.437","REF_FRAME":"TEME","PERIAPSIS":"538.015","MEAN_MOTION_DOT":"0.00001835","OBJECT_NAME":"STARLINK-3150","MEAN_MOTION":"15.08852156","TIME_SYSTEM":"UTC","OBJECT_ID":"2021-104AW","INCLINATION":"53.2156","RA_OF_ASC_NODE":"169.6916","CENTER_NAME":"EARTH","SEMIMAJOR_AXIS":"6917.843","OBJECT_TYPE":"PAYLOAD","EPOCH":"2022-12-03T19:24:01.598112","MEAN_MOTION_DDOT":"0.0000000000000","MEAN_ELEMENT_THEORY":"SGP4","ELEMENT_SET_NO":"999","MEAN_ANOMALY":"320.9785","ARG_OF_PERICENTER":"39.1384","EPHEMERIS_TYPE":"0"},{"GP_ID":"219481514","TLE_LINE1":"1 49453U 21104AX  22337.81475889  .00001319  00000-0  10099-3 0  9996","NORAD_CAT_ID":"49453","SITE":"AFETR","RCS_SIZE":"LARGE","CLASSIFICATION_TYPE":"U","COUNTRY_CODE":"US","APOAPSIS":"541.770","REV_AT_EPOCH":"5884","FILE":"3680595","TLE_LINE2":"2 49453  53.2175 169.6650 0002869  45.4210 314.7016 15.08826937 58840","LAUNCH_DATE":"2021-11-13","BSTAR":"0.00010099000000","ECCENTRICITY":"0.00028690","DECAY_DATE":null,"MEAN_MOTION_DOT":"0.00001319","PERIAPSIS":"537.801","REF_FRAME":"TEME","PERIOD":"95.438","MEAN_MOTION":"15.08826937","OBJECT_NAME":"STARLINK-3129","CENTER_NAME":"EARTH","SEMIMAJOR_AXIS":"6917.920","RA_OF_ASC_NODE":"169.6650","INCLINATION":"53.2175","OBJECT_ID":"2021-104AX","TIME_SYSTEM":"UTC","MEAN_ELEMENT_THEORY":"SGP4","MEAN_MOTION_DDOT":"0.0000000000000","OBJECT_TYPE":"PAYLOAD","EPOCH":"2022-12-03T19:33:15.168096","MEAN_ANOMALY":"314.7016","ELEMENT_SET_NO":"999","ARG_OF_PERICENTER":"45.4210","EPHEMERIS_TYPE":"0"}];
